{
  "type": "FeatureCollection",
  "features": [
    {
      "type": "Feature",
      "properties": {
        "norad_id": 36550,
        "name": "COSMOS 2251 DEB",
        "group": "cosmos-2251-debris",
        "lat": -30.208168931822396,
        "lon": 158.8795818902539,
        "alt_km": 827.5368229598653,
        "timestamp": "2025-12-26T03:50:12.491606+00:00",
        "meta_object_name": "COSMOS 2251 DEB",
        "meta_object_id": "1993-036BDL",
        "meta_epoch": "2025-12-23T05:19:51.847104",
        "meta_mean_motion": 14.27229725,
        "meta_eccentricity": 0.00778519,
        "meta_inclination": 74.0443,
        "meta_ra_of_asc_node": 173.7801,
        "meta_arg_of_pericenter": 222.1192,
        "meta_mean_anomaly": 137.3958,
        "meta_ephemeris_type": 0,
        "meta_classification_type": "U",
        "meta_norad_cat_id": 36550,
        "meta_element_set_no": 999,
        "meta_rev_at_epoch": 84745,
        "meta_bstar": 0.00062346046,
        "meta_mean_motion_dot": 1.548e-05,
        "meta_mean_motion_ddot": 0,
        "tle_line1": "1 36550U 93036BDL 25357.22212786  .00001548  00000+0  62346-3 0  9993",
        "tle_line2": "2 36550  74.0443 173.7801 0077851 222.1192 137.3958 14.27229725847452"
      },
      "geometry": {
        "type": "Point",
        "coordinates": [
          158.8795818902539,
          -30.208168931822396
        ]
      }
    },
    {
      "type": "Feature",
      "properties": {
        "norad_id": 36551,
        "name": "COSMOS 2251 DEB",
        "group": "cosmos-2251-debris",
        "lat": 65.56833454845032,
        "lon": 26.579221997327974,
        "alt_km": 576.9943452571633,
        "timestamp": "2025-12-26T03:50:12.491616+00:00",
        "meta_object_name": "COSMOS 2251 DEB",
        "meta_object_id": "1993-036BDM",
        "meta_epoch": "2025-12-23T08:25:21.362880",
        "meta_mean_motion": 15.02881194,
        "meta_eccentricity": 0.00509794,
        "meta_inclination": 73.8872,
        "meta_ra_of_asc_node": 352.8451,
        "meta_arg_of_pericenter": 300.1612,
        "meta_mean_anomaly": 59.4529,
        "meta_ephemeris_type": 0,
        "meta_classification_type": "U",
        "meta_norad_cat_id": 36551,
        "meta_element_set_no": 999,
        "meta_rev_at_epoch": 67091,
        "meta_bstar": 0.0013038883,
        "meta_mean_motion_dot": 0.00017997,
        "meta_mean_motion_ddot": 0,
        "tle_line1": "1 36551U 93036BDM 25357.35094170  .00017997  00000+0  13039-2 0  9992",
        "tle_line2": "2 36551  73.8872 352.8451 0050979 300.1612  59.4529 15.02881194670914"
      },
      "geometry": {
        "type": "Point",
        "coordinates": [
          26.579221997327974,
          65.56833454845032
        ]
      }
    },
    {
      "type": "Feature",
      "properties": {
        "norad_id": 36557,
        "name": "COSMOS 2251 DEB",
        "group": "cosmos-2251-debris",
        "lat": -33.29843046877879,
        "lon": 88.9061146529745,
        "alt_km": 633.7517380485388,
        "timestamp": "2025-12-26T03:50:12.491626+00:00",
        "meta_object_name": "COSMOS 2251 DEB",
        "meta_object_id": "1993-036BDT",
        "meta_epoch": "2025-12-25T13:22:56.127648",
        "meta_mean_motion": 14.7886677,
        "meta_eccentricity": 0.0022188,
        "meta_inclination": 73.9787,
        "meta_ra_of_asc_node": 100.973,
        "meta_arg_of_pericenter": 254.7091,
        "meta_mean_anomaly": 105.1632,
        "meta_ephemeris_type": 0,
        "meta_classification_type": "U",
        "meta_norad_cat_id": 36557,
        "meta_element_set_no": 999,
        "meta_rev_at_epoch": 34086,
        "meta_bstar": 0.0038011,
        "meta_mean_motion_dot": 0.00028197,
        "meta_mean_motion_ddot": 0,
        "tle_line1": "1 36557U 93036BDT 25359.55759407  .00028197  00000+0  38011-2 0  9994",
        "tle_line2": "2 36557  73.9787 100.9730 0022188 254.7091 105.1632 14.78866770340861"
      },
      "geometry": {
        "type": "Point",
        "coordinates": [
          88.9061146529745,
          -33.29843046877879
        ]
      }
    },
    {
      "type": "Feature",
      "properties": {
        "norad_id": 36558,
        "name": "COSMOS 2251 DEB",
        "group": "cosmos-2251-debris",
        "lat": -43.904343224211,
        "lon": -34.88104450071812,
        "alt_km": 705.3744388574378,
        "timestamp": "2025-12-26T03:50:12.491637+00:00",
        "meta_object_name": "COSMOS 2251 DEB",
        "meta_object_id": "1993-036BDU",
        "meta_epoch": "2025-12-25T15:15:12.808224",
        "meta_mean_motion": 14.55453872,
        "meta_eccentricity": 0.0012585,
        "meta_inclination": 74.0432,
        "meta_ra_of_asc_node": 130.1267,
        "meta_arg_of_pericenter": 219.2575,
        "meta_mean_anomaly": 140.7676,
        "meta_ephemeris_type": 0,
        "meta_classification_type": "U",
        "meta_norad_cat_id": 36558,
        "meta_element_set_no": 999,
        "meta_rev_at_epoch": 85456,
        "meta_bstar": 0.0010262,
        "meta_mean_motion_dot": 4.441e-05,
        "meta_mean_motion_ddot": 0,
        "tle_line1": "1 36558U 93036BDU 25359.63556491  .00004441  00000+0  10262-2 0  9996",
        "tle_line2": "2 36558  74.0432 130.1267 0012585 219.2575 140.7676 14.55453872854564"
      },
      "geometry": {
        "type": "Point",
        "coordinates": [
          -34.88104450071812,
          -43.904343224211
        ]
      }
    },
    {
      "type": "Feature",
      "properties": {
        "norad_id": 36559,
        "name": "COSMOS 2251 DEB",
        "group": "cosmos-2251-debris",
        "lat": 35.71472807545849,
        "lon": -1.3200347989601486,
        "alt_km": 729.4855547534617,
        "timestamp": "2025-12-26T03:50:12.491651+00:00",
        "meta_object_name": "COSMOS 2251 DEB",
        "meta_object_id": "1993-036BDV",
        "meta_epoch": "2025-12-20T23:46:37.184160",
        "meta_mean_motion": 13.9527233,
        "meta_eccentricity": 0.0261353,
        "meta_inclination": 74.1312,
        "meta_ra_of_asc_node": 355.7104,
        "meta_arg_of_pericenter": 25.9739,
        "meta_mean_anomaly": 335.4239,
        "meta_ephemeris_type": 0,
        "meta_classification_type": "U",
        "meta_norad_cat_id": 36559,
        "meta_element_set_no": 999,
        "meta_rev_at_epoch": 81209,
        "meta_bstar": 0.0030098689,
        "meta_mean_motion_dot": 5.397e-05,
        "meta_mean_motion_ddot": 0,
        "tle_line1": "1 36559U 93036BDV 25354.99070815  .00005397  00000+0  30099-2 0  9993",
        "tle_line2": "2 36559  74.1312 355.7104 0261353  25.9739 335.4239 13.95272330812092"
      },
      "geometry": {
        "type": "Point",
        "coordinates": [
          -1.3200347989601486,
          35.71472807545849
        ]
      }
    },
    {
      "type": "Feature",
      "properties": {
        "norad_id": 36614,
        "name": "COSMOS 2251 DEB",
        "group": "cosmos-2251-debris",
        "lat": 55.28224606720005,
        "lon": -55.48365616997,
        "alt_km": 687.5773337076762,
        "timestamp": "2025-12-26T03:50:12.491661+00:00",
        "meta_object_name": "COSMOS 2251 DEB",
        "meta_object_id": "1993-036BEC",
        "meta_epoch": "2025-12-25T19:03:45.124128",
        "meta_mean_motion": 14.60436705,
        "meta_eccentricity": 0.0015545,
        "meta_inclination": 74.0219,
        "meta_ra_of_asc_node": 149.6406,
        "meta_arg_of_pericenter": 219.5991,
        "meta_mean_anomaly": 140.404,
        "meta_ephemeris_type": 0,
        "meta_classification_type": "U",
        "meta_norad_cat_id": 36614,
        "meta_element_set_no": 999,
        "meta_rev_at_epoch": 65803,
        "meta_bstar": 0.0017519,
        "meta_mean_motion_dot": 8.483e-05,
        "meta_mean_motion_ddot": 0,
        "tle_line1": "1 36614U 93036BEC 25359.79427227  .00008483  00000+0  17519-2 0  9992",
        "tle_line2": "2 36614  74.0219 149.6406 0015545 219.5991 140.4040 14.60436705658032"
      },
      "geometry": {
        "type": "Point",
        "coordinates": [
          -55.48365616997,
          55.28224606720005
        ]
      }
    },
    {
      "type": "Feature",
      "properties": {
        "norad_id": 36622,
        "name": "COSMOS 2251 DEB",
        "group": "cosmos-2251-debris",
        "lat": -50.79413222146368,
        "lon": -40.26443865949535,
        "alt_km": 601.5627924696782,
        "timestamp": "2025-12-26T03:50:12.491672+00:00",
        "meta_object_name": "COSMOS 2251 DEB",
        "meta_object_id": "1993-036BEL",
        "meta_epoch": "2025-12-24T01:59:12.142752",
        "meta_mean_motion": 14.76299213,
        "meta_eccentricity": 0.00689018,
        "meta_inclination": 74.0149,
        "meta_ra_of_asc_node": 123.2338,
        "meta_arg_of_pericenter": 256.4441,
        "meta_mean_anomaly": 102.9052,
        "meta_ephemeris_type": 0,
        "meta_classification_type": "U",
        "meta_norad_cat_id": 36622,
        "meta_element_set_no": 999,
        "meta_rev_at_epoch": 66917,
        "meta_bstar": 0.00077654532,
        "meta_mean_motion_dot": 5.567e-05,
        "meta_mean_motion_ddot": 0,
        "tle_line1": "1 36622U 93036BEL 25358.08277943  .00005567  00000+0  77655-3 0  9998",
        "tle_line2": "2 36622  74.0149 123.2338 0068901 256.4441 102.9052 14.76299213669170"
      },
      "geometry": {
        "type": "Point",
        "coordinates": [
          -40.26443865949535,
          -50.79413222146368
        ]
      }
    }
  ]
}